{"type": "FeatureCollection", "features": [ {"type": "Feature", "properties": {"norad_id": 40118, "name": "GAOFEN-2", "group": "resource", "lat": 60.913657759212875, "lon": -111.70153886578714, "alt_km": 615.9747998650073, "timestamp": "2025-12-20T09:36:01.288773+00:00", "meta": {"OBJECT_NAME": "GAOFEN-2", "OBJECT_ID": "2014-049A", "EPOCH": "2025-12-20T04:12:14.982624", "MEAN_MOTION": 14.80619405, "ECCENTRICITY": 0.0008709, "INCLINATION": 98.0381, "RA_OF_ASC_NODE": 53.3569, "ARG_OF_PERICENTER": 92.5598, "MEAN_ANOMALY": 267.6611, "EPHEMERIS_TYPE": 0, "CLASSIFICATION_TYPE": "U", "NORAD_CAT_ID": 40118, "ELEMENT_SET_NO": 999, "REV_AT_EPOCH": 61274, "BSTAR": 1.4058e-05, "MEAN_MOTION_DOT": 5.4e-07, "MEAN_MOTION_DDOT": 0}, "tle": {"line1": "1 40118U 14049A   25354.17517341  .00000054  00000+0  14058-4 0  9990", "line2": "2 40118  98.0381  53.3569 0008709  92.5598 267.6611 14.80619405612745"}}, "geometry": {"type": "Point", "coordinates": [-111.70153886578714, 60.913657759212875]}}, {"type": "Feature", "properties": {"norad_id": 40143, "name": "YAOGAN-21", "group": "resource", "lat": -7.823448858171402, "lon": -143.6113732576048, "alt_km": 504.6857861972585, "timestamp": "2025-12-20T09:36:01.288783+00:00", "meta": {"OBJECT_NAME": "YAOGAN-21", "OBJECT_ID": "2014-053A", "EPOCH": "2025-12-20T04:03:03.063744", "MEAN_MOTION": 15.23745526, "ECCENTRICITY": 0.0008961, "INCLINATION": 97.175, "RA_OF_ASC_NODE": 37.1592, "ARG_OF_PERICENTER": 18.2704, "MEAN_ANOMALY": 341.8854, "EPHEMERIS_TYPE": 0, "CLASSIFICATION_TYPE": "U", "NORAD_CAT_ID": 40143, "ELEMENT_SET_NO": 999, "REV_AT_EPOCH": 62767, "BSTAR": 6.862e-05, "MEAN_MOTION_DOT": 1.583e-05, "MEAN_MOTION_DDOT": 0}, "tle": {"line1": "1 40143U 14053A   25354.16878546  .00001583  00000+0  68620-4 0  9991", "line2": "2 40143  97.1750  37.1592 0008961  18.2704 341.8854 15.23745526627677"}}, "geometry": {"type": "Point", "coordinates": [-143.6113732576048, -7.823448858171402]}}, {"type": "Feature", "properties": {"norad_id": 40275, "name": "YAOGAN-22", "group": "resource", "lat": 49.87704669325939, "lon": 124.90996859686874, "alt_km": 1201.7133279968193, "timestamp": "2025-12-20T09:36:01.288794+00:00", "meta": {"OBJECT_NAME": "YAOGAN-22", "OBJECT_ID": "2014-063A", "EPOCH": "2025-12-20T00:12:54.054144", "MEAN_MOTION": 13.1552296, "ECCENTRICITY": 0.0006016, "INCLINATION": 100.7427, "RA_OF_ASC_NODE": 137.5312, "ARG_OF_PERICENTER": 230.5566, "MEAN_ANOMALY": 129.5013, "EPHEMERIS_TYPE": 0, "CLASSIFICATION_TYPE": "U", "NORAD_CAT_ID": 40275, "ELEMENT_SET_NO": 999, "REV_AT_EPOCH": 53625, "BSTAR": -3.4226e-06, "MEAN_MOTION_DOT": -4.8e-07, "MEAN_MOTION_DDOT": 0}, "tle": {"line1": "1 40275U 14063A   25354.00895896 -.00000048  00000+0 -34226-5 0  9991", "line2": "2 40275 100.7427 137.5312 0006016 230.5566 129.5013 13.15522960536259"}}, "geometry": {"type": "Point", "coordinates": [124.90996859686874, 49.87704669325939]}}, {"type": "Feature", "properties": {"norad_id": 40298, "name": "ASNARO", "group": "resource", "lat": 57.48033911923378, "lon": -98.13446217854757, "alt_km": 497.73661265458395, "timestamp": "2025-12-20T09:36:01.288804+00:00", "meta": {"OBJECT_NAME": "ASNARO", "OBJECT_ID": "2014-070A", "EPOCH": "2025-12-20T04:19:33.677760", "MEAN_MOTION": 15.19636402, "ECCENTRICITY": 0.000574, "INCLINATION": 97.3652, "RA_OF_ASC_NODE": 69.9454, "ARG_OF_PERICENTER": 102.1454, "MEAN_ANOMALY": 258.0424, "EPHEMERIS_TYPE": 0, "CLASSIFICATION_TYPE": "U", "NORAD_CAT_ID": 40298, "ELEMENT_SET_NO": 999, "REV_AT_EPOCH": 61682, "BSTAR": 0.00025843, "MEAN_MOTION_DOT": 5.443e-05, "MEAN_MOTION_DDOT": 0}, "tle": {"line1": "1 40298U 14070A   25354.18025090  .00005443  00000+0  25843-3 0  9999", "line2": "2 40298  97.3652  69.9454 0005740 102.1454 258.0424 15.19636402616822"}}, "geometry": {"type": "Point", "coordinates": [-98.13446217854757, 57.48033911923378]}}, {"type": "Feature", "properties": {"norad_id": 40310, "name": "YAOGAN-24", "group": "resource", "lat": -20.316479855605387, "lon": 128.5649218505876, "alt_km": 654.1341297931885, "timestamp": "2025-12-20T09:36:01.288813+00:00", "meta": {"OBJECT_NAME": "YAOGAN-24", "OBJECT_ID": "2014-072A", "EPOCH": "2025-12-20T04:48:46.624032", "MEAN_MOTION": 14.76191375, "ECCENTRICITY": 0.001507, "INCLINATION": 98.1223, "RA_OF_ASC_NODE": 125.3335, "ARG_OF_PERICENTER": 115.6807, "MEAN_ANOMALY": 244.5961, "EPHEMERIS_TYPE": 0, "CLASSIFICATION_TYPE": "U", "NORAD_CAT_ID": 40310, "ELEMENT_SET_NO": 999, "REV_AT_EPOCH": 59731, "BSTAR": 0.00011933, "MEAN_MOTION_DOT": 7.74e-06, "MEAN_MOTION_DDOT": 0}, "tle": {"line1": "1 40310U 14072A   25354.20053963  .00000774  00000+0  11933-3 0  9996", "line2": "2 40310  98.1223 125.3335 0015070 115.6807 244.5961 14.76191375597318"}}, "geometry": {"type": "Point", "coordinates": [128.5649218505876, -20.316479855605387]}}, {"type": "Feature", "properties": {"norad_id": 40336, "name": "CBERS 4", "group": "resource", "lat": 39.82882608919586, "lon": 45.13588503932098, "alt_km": 769.6629815105571, "timestamp": "2025-12-20T09:36:01.288823+00:00", "meta": {"OBJECT_NAME": "CBERS 4", "OBJECT_ID": "2014-079A", "EPOCH": "2025-12-20T04:23:40.435296", "MEAN_MOTION": 14.35520266, "ECCENTRICITY": 0.0001803, "INCLINATION": 98.3304, "RA_OF_ASC_NODE": 51.9456, "ARG_OF_PERICENTER": 104.8594, "MEAN_ANOMALY": 255.2792, "EPHEMERIS_TYPE": 0, "CLASSIFICATION_TYPE": "U", "NORAD_CAT_ID": 40336, "ELEMENT_SET_NO": 999, "REV_AT_EPOCH": 57827, "BSTAR": 4.052e-05, "MEAN_MOTION_DOT": 7.5e-07, "MEAN_MOTION_DDOT": 0}, "tle": {"line1": "1 40336U 14079A   25354.18310689  .00000075  00000+0  40520-4 0  9998", "line2": "2 40336  98.3304  51.9456 0001803 104.8594 255.2792 14.35520266578273"}}, "geometry": {"type": "Point", "coordinates": [45.13588503932098, 39.82882608919586]}}, {"type": "Feature", "properties": {"norad_id": 40362, "name": "YAOGAN-26", "group": "resource", "lat": -24.682378401020365, "lon": -1.9308142300188225, "alt_km": 450.10681594951166, "timestamp": "2025-12-20T09:36:01.288833+00:00", "meta": {"OBJECT_NAME": "YAOGAN-26", "OBJECT_ID": "2014-088A", "EPOCH": "2025-12-20T05:01:42.135744", "MEAN_MOTION": 15.39552517, "ECCENTRICITY": 0.0005156, "INCLINATION": 97.0632, "RA_OF_ASC_NODE": 354.6187, "ARG_OF_PERICENTER": 7.6837, "MEAN_ANOMALY": 352.4488, "EPHEMERIS_TYPE": 0, "CLASSIFICATION_TYPE": "U", "NORAD_CAT_ID": 40362, "ELEMENT_SET_NO": 999, "REV_AT_EPOCH": 61009, "BSTAR": 0.00044481, "MEAN_MOTION_DOT": 0.00017435, "MEAN_MOTION_DDOT": 0}, "tle": {"line1": "1 40362U 14088A   25354.20951546  .00017435  00000+0  44481-3 0  9990", "line2": "2 40362  97.0632 354.6187 0005156   7.6837 352.4488 15.39552517610099"}}, "geometry": {"type": "Point", "coordinates": [-1.9308142300188225, -24.682378401020365]}}, {"type": "Feature", "properties": {"norad_id": 40376, "name": "SMAP", "group": "resource", "lat": -68.9169709363565, "lon": 20.77442002827438, "alt_km": 690.449388974459, "timestamp": "2025-12-20T09:36:01.288843+00:00", "meta": {"OBJECT_NAME": "SMAP", "OBJECT_ID": "2015-003A", "EPOCH": "2025-12-20T03:21:28.281024", "MEAN_MOTION": 14.63353584, "ECCENTRICITY": 0.0001223, "INCLINATION": 98.1288, "RA_OF_ASC_NODE": 358.7571, "ARG_OF_PERICENTER": 91.9044, "MEAN_ANOMALY": 268.2298, "EPHEMERIS_TYPE": 0, "CLASSIFICATION_TYPE": "U", "NORAD_CAT_ID": 40376, "ELEMENT_SET_NO": 999, "REV_AT_EPOCH": 58143, "BSTAR": 7.9512e-05, "MEAN_MOTION_DOT": 3.64e-06, "MEAN_MOTION_DDOT": 0}, "tle": {"line1": "1 40376U 15003A   25354.13991066  .00000364  00000+0  79512-4 0  9993", "line2": "2 40376  98.1288 358.7571 0001223  91.9044 268.2298 14.63353584581439"}}, "geometry": {"type": "Point", "coordinates": [20.77442002827438, -68.9169709363565]}}, {"type": "Feature", "properties": {"norad_id": 40536, "name": "KOMPSAT-3A", "group": "resource", "lat": 43.55128464817697, "lon": -38.199126838401845, "alt_km": 428.59663308678046, "timestamp": "2025-12-20T09:36:01.288854+00:00", "meta": {"OBJECT_NAME": "KOMPSAT-3A", "OBJECT_ID": "2015-014A", "EPOCH": "2025-12-20T04:44:40.727040", "MEAN_MOTION": 15.44202367, "ECCENTRICITY": 0.0005424, "INCLINATION": 97.6791, "RA_OF_ASC_NODE": 328.9571, "ARG_OF_PERICENTER": 110.2841, "MEAN_ANOMALY": 249.899, "EPHEMERIS_TYPE": 0, "CLASSIFICATION_TYPE": "U", "NORAD_CAT_ID": 40536, "ELEMENT_SET_NO": 999, "REV_AT_EPOCH": 59410, "BSTAR": 0.00030153, "MEAN_MOTION_DOT": 0.00013756, "MEAN_MOTION_DDOT": 0}, "tle": {"line1": "1 40536U 15014A   25354.19769360  .00013756  00000+0  30153-3 0  9995", "line2": "2 40536  97.6791 328.9571 0005424 110.2841 249.8990 15.44202367594100"}}, "geometry": {"type": "Point", "coordinates": [-38.199126838401845, 43.55128464817697]}}, {"type": "Feature", "properties": {"norad_id": 40697, "name": "SENTINEL-2A", "group": "resource", "lat": -17.80139781071451, "lon": 69.60174760116718, "alt_km": 794.1890430789663, "timestamp": "2025-12-20T09:36:01.288864+00:00", "meta": {"OBJECT_NAME": "SENTINEL-2A", "OBJECT_ID": "2015-028A", "EPOCH": "2025-12-20T04:38:57.598080", "MEAN_MOTION": 14.30807678, "ECCENTRICITY": 0.0001061, "INCLINATION": 98.5745, "RA_OF_ASC_NODE": 66.6215, "ARG_OF_PERICENTER": 89.7164, "MEAN_ANOMALY": 270.414, "EPHEMERIS_TYPE": 0, "CLASSIFICATION_TYPE": "U", "NORAD_CAT_ID": 40697, "ELEMENT_SET_NO": 999, "REV_AT_EPOCH": 54813, "BSTAR": 1.8281e-05, "MEAN_MOTION_DOT": 4e-08, "MEAN_MOTION_DDOT": 0}, "tle": {"line1": "1 40697U 15028A   25354.19372220  .00000004  00000+0  18281-4 0  9994", "line2": "2 40697  98.5745  66.6215 0001061  89.7164 270.4140 14.30807678548138"}}, "geometry": {"type": "Point", "coordinates": [69.60174760116718, -17.80139781071451]}}]}